{"type": "FeatureCollection", "features": [{"type": "Feature", "geometry": {"type": "Point", "coordinates": [77.5487289428711, 14.751279830932617]}, "properties": {"suitability_probability": 0.9681}}, {"type": "Feature", "geometry": {"type": "Point", "coordinates": [77.5545654296875, 14.751279830932617]}, "properties": {"suitability_probability": 0.0188}}, {"type": "Feature", "geometry": {"type": "Point", "coordinates": [77.56040954589844, 14.751279830932617]}, "properties": {"suitability_probability": 0.9958}}, {"type": "Feature", "geometry": {"type": "Point", "coordinates": [77.56624603271484, 14.751279830932617]}, "properties": {"suitability_probability": 0.0108}}, {"type": "Feature", "geometry": {"type": "Point", "coordinates": [77.57208251953125, 14.751279830932617]}, "properties": {"suitability_probability": 0.0104}}, {"type": "Feature", "geometry": {"type": "Point", "coordinates": [77.57792663574219, 14.751279830932617]}, "properties": {"suitability_probability": 0.0165}}, {"type": "Feature", "geometry": {"type": "Point", "coordinates": [77.5837631225586, 14.751279830932617]}, "properties": {"suitability_probability": 0.3506}}, {"type": "Feature", "geometry": {"type": "Point", "coordinates": [77.589599609375, 14.751279830932617]}, "properties": {"suitability_probability": 0.0053}}, {"type": "Feature", "geometry": {"type": "Point", "coordinates": [77.59544372558594, 14.751279830932617]}, "properties": {"suitability_probability": 0.0007}}, {"type": "Feature", "geometry": {"type": "Point", "coordinates": [77.60128021240234, 14.751279830932617]}, "properties": {"suitability_probability": 0.5373}}, {"type": "Feature", "geometry": {"type": "Point", "coordinates": [77.60711669921875, 14.751279830932617]}, "properties": {"suitability_probability": 0.9939}}, {"type": "Feature", "geometry": {"type": "Point", "coordinates": [77.61296081542969, 14.751279830932617]}, "properties": {"suitability_probability": 0.1215}}, {"type": "Feature", "geometry": {"type": "Point", "coordinates": [77.6187973022461, 14.751279830932617]}, "properties": {"suitability_probability": 0.992}}, {"type": "Feature", "geometry": {"type": "Point", "coordinates": [77.6246337890625, 14.751279830932617]}, "properties": {"suitability_probability": 0.0009}}, {"type": "Feature", "geometry": {"type": "Point", "coordinates": [77.63047790527344, 14.751279830932617]}, "properties": {"suitability_probability": 0.0177}}, {"type": "Feature", "geometry": {"type": "Point", "coordinates": [77.63631439208984, 14.751279830932617]}, "properties": {"suitability_probability": 0.0038}}, {"type": "Feature", "geometry": {"type": "Point", "coordinates": [77.64215087890625, 14.751279830932617]}, "properties": {"suitability_probability": 0.0048}}, {"type": "Feature", "geometry": {"type": "Point", "coordinates": [77.64799499511719, 14.751279830932617]}, "properties": {"suitability_probability": 0.4102}}, {"type": "Feature", "geometry": {"type": "Point", "coordinates": [77.6538314819336, 14.751279830932617]}, "properties": {"suitability_probability": 0.9752}}, {"type": "Feature", "geometry": {"type": "Point", "coordinates": [77.65966796875, 14.751279830932617]}, "properties": {"suitability_probability": 0.8288}}, {"type": "Feature", "geometry": {"type": "Point", "coordinates": [77.66551208496094, 14.751279830932617]}, "properties": {"suitability_probability": 0.8788}}, {"type": "Feature", "geometry": {"type": "Point", "coordinates": [77.67134857177734, 14.751279830932617]}, "properties": {"suitability_probability": 0.918}}, {"type": "Feature", "geometry": {"type": "Point", "coordinates": [77.5487289428711, 14.745441436767578]}, "properties": {"suitability_probability": 0.0012}}, {"type": "Feature", "geometry": {"type": "Point", "coordinates": [77.5545654296875, 14.745441436767578]}, "properties": {"suitability_probability": 0.0023}}, {"type": "Feature", "geometry": {"type": "Point", "coordinates": [77.56040954589844, 14.745441436767578]}, "properties": {"suitability_probability": 0.0011}}, {"type": "Feature", "geometry": {"type": "Point", "coordinates": [77.56624603271484, 14.745441436767578]}, "properties": {"suitability_probability": 0.004}}, {"type": "Feature", "geometry": {"type": "Point", "coordinates": [77.57208251953125, 14.745441436767578]}, "properties": {"suitability_probability": 0.0313}}, {"type": "Feature", "geometry": {"type": "Point", "coordinates": [77.57792663574219, 14.745441436767578]}, "properties": {"suitability_probability": 0.0479}}, {"type": "Feature", "geometry": {"type": "Point", "coordinates": [77.5837631225586, 14.745441436767578]}, "properties": {"suitability_probability": 0.0004}}, {"type": "Feature", "geometry": {"type": "Point", "coordinates": [77.589599609375, 14.745441436767578]}, "properties": {"suitability_probability": 0.0027}}, {"type": "Feature", "geometry": {"type": "Point", "coordinates": [77.59544372558594, 14.745441436767578]}, "properties": {"suitability_probability": 0.011}}, {"type": "Feature", "geometry": {"type": "Point", "coordinates": [77.60128021240234, 14.745441436767578]}, "properties": {"suitability_probability": 0.0021}}, {"type": "Feature", "geometry": {"type": "Point", "coordinates": [77.60711669921875, 14.745441436767578]}, "properties": {"suitability_probability": 0.0023}}, {"type": "Feature", "geometry": {"type": "Point", "coordinates": [77.61296081542969, 14.745441436767578]}, "properties": {"suitability_probability": 0.0138}}, {"type": "Feature", "geometry": {"type": "Point", "coordinates": [77.6187973022461, 14.745441436767578]}, "properties": {"suitability_probability": 0.0026}}, {"type": "Feature", "geometry": {"type": "Point", "coordinates": [77.6246337890625, 14.745441436767578]}, "properties": {"suitability_probability": 0.0003}}, {"type": "Feature", "geometry": {"type": "Point", "coordinates": [77.63047790527344, 14.745441436767578]}, "properties": {"suitability_probability": 0.8205}}, {"type": "Feature", "geometry": {"type": "Point", "coordinates": [77.63631439208984, 14.745441436767578]}, "properties": {"suitability_probability": 0.0539}}, {"type": "Feature", "geometry": {"type": "Point", "coordinates": [77.64215087890625, 14.745441436767578]}, "properties": {"suitability_probability": 0.0021}}, {"type": "Feature", "geometry": {"type": "Point", "coordinates": [77.64799499511719, 14.745441436767578]}, "properties": {"suitability_probability": 0.0331}}, {"type": "Feature", "geometry": {"type": "Point", "coordinates": [77.6538314819336, 14.745441436767578]}, "properties": {"suitability_probability": 0.0673}}, {"type": "Feature", "geometry": {"type": "Point", "coordinates": [77.65966796875, 14.745441436767578]}, "properties": {"suitability_probability": 0.0019}}, {"type": "Feature", "geometry": {"type": "Point", "coordinates": [77.66551208496094, 14.745441436767578]}, "properties": {"suitability_probability": 0.005}}, {"type": "Feature", "geometry": {"type": "Point", "coordinates": [77.67134857177734, 14.745441436767578]}, "properties": {"suitability_probability": 0.9357}}, {"type": "Feature", "geometry": {"type": "Point", "coordinates": [77.5487289428711, 14.739602088928223]}, "properties": {"suitability_probability": 0.0252}}, {"type": "Feature", "geometry": {"type": "Point", "coordinates": [77.5545654296875, 14.739602088928223]}, "properties": {"suitability_probability": 0.0278}}, {"type": "Feature", "geometry": {"type": "Point", "coordinates": [77.56040954589844, 14.739602088928223]}, "properties": {"suitability_probability": 0.0035}}, {"type": "Feature", "geometry": {"type": "Point", "coordinates": [77.56624603271484, 14.739602088928223]}, "properties": {"suitability_probability": 0.3319}}, {"type": "Feature", "geometry": {"type": "Point", "coordinates": [77.57208251953125, 14.739602088928223]}, "properties": {"suitability_probability": 0.0006}}, {"type": "Feature", "geometry": {"type": "Point", "coordinates": [77.57792663574219, 14.739602088928223]}, "properties": {"suitability_probability": 0.0684}}, {"type": "Feature", "geometry": {"type": "Point", "coordinates": [77.5837631225586, 14.739602088928223]}, "properties": {"suitability_probability": 0.0073}}, {"type": "Feature", "geometry": {"type": "Point", "coordinates": [77.589599609375, 14.739602088928223]}, "properties": {"suitability_probability": 0.4121}}, {"type": "Feature", "geometry": {"type": "Point", "coordinates": [77.59544372558594, 14.739602088928223]}, "properties": {"suitability_probability": 0.0015}}, {"type": "Feature", "geometry": {"type": "Point", "coordinates": [77.60128021240234, 14.739602088928223]}, "properties": {"suitability_probability": 0.0281}}, {"type": "Feature", "geometry": {"type": "Point", "coordinates": [77.60711669921875, 14.739602088928223]}, "properties": {"suitability_probability": 0.8843}}, {"type": "Feature", "geometry": {"type": "Point", "coordinates": [77.61296081542969, 14.739602088928223]}, "properties": {"suitability_probability": 0.292}}, {"type": "Feature", "geometry": {"type": "Point", "coordinates": [77.6187973022461, 14.739602088928223]}, "properties": {"suitability_probability": 0.0026}}, {"type": "Feature", "geometry": {"type": "Point", "coordinates": [77.6246337890625, 14.739602088928223]}, "properties": {"suitability_probability": 0.0055}}, {"type": "Feature", "geometry": {"type": "Point", "coordinates": [77.63047790527344, 14.739602088928223]}, "properties": {"suitability_probability": 0.2948}}, {"type": "Feature", "geometry": {"type": "Point", "coordinates": [77.63631439208984, 14.739602088928223]}, "properties": {"suitability_probability": 0.0268}}, {"type": "Feature", "geometry": {"type": "Point", "coordinates": [77.64215087890625, 14.739602088928223]}, "properties": {"suitability_probability": 0.0015}}, {"type": "Feature", "geometry": {"type": "Point", "coordinates": [77.64799499511719, 14.739602088928223]}, "properties": {"suitability_probability": 0.0021}}, {"type": "Feature", "geometry": {"type": "Point", "coordinates": [77.6538314819336, 14.739602088928223]}, "properties": {"suitability_probability": 0.0014}}, {"type": "Feature", "geometry": {"type": "Point", "coordinates": [77.65966796875, 14.739602088928223]}, "properties": {"suitability_probability": 0.0012}}, {"type": "Feature", "geometry": {"type": "Point", "coordinates": [77.66551208496094, 14.739602088928223]}, "properties": {"suitability_probability": 0.7896}}, {"type": "Feature", "geometry": {"type": "Point", "coordinates": [77.67134857177734, 14.739602088928223]}, "properties": {"suitability_probability": 0.9893}}, {"type": "Feature", "geometry": {"type": "Point", "coordinates": [77.5487289428711, 14.733762741088867]}, "properties": {"suitability_probability": 0.4928}}, {"type": "Feature", "geometry": {"type": "Point", "coordinates": [77.5545654296875, 14.733762741088867]}, "properties": {"suitability_probability": 0.0117}}, {"type": "Feature", "geometry": {"type": "Point", "coordinates": [77.56040954589844, 14.733762741088867]}, "properties": {"suitability_probability": 0.001}}, {"type": "Feature", "geometry": {"type": "Point", "coordinates": [77.56624603271484, 14.733762741088867]}, "properties": {"suitability_probability": 0.0026}}, {"type": "Feature", "geometry": {"type": "Point", "coordinates": [77.57208251953125, 14.733762741088867]}, "properties": {"suitability_probability": 0.0925}}, {"type": "Feature", "geometry": {"type": "Point", "coordinates": [77.57792663574219, 14.733762741088867]}, "properties": {"suitability_probability": 0.0094}}, {"type": "Feature", "geometry": {"type": "Point", "coordinates": [77.5837631225586, 14.733762741088867]}, "properties": {"suitability_probability": 0.0005}}, {"type": "Feature", "geometry": {"type": "Point", "coordinates": [77.589599609375, 14.733762741088867]}, "properties": {"suitability_probability": 0.1484}}, {"type": "Feature", "geometry": {"type": "Point", "coordinates": [77.59544372558594, 14.733762741088867]}, "properties": {"suitability_probability": 0.0716}}, {"type": "Feature", "geometry": {"type": "Point", "coordinates": [77.60128021240234, 14.733762741088867]}, "properties": {"suitability_probability": 0.0258}}, {"type": "Feature", "geometry": {"type": "Point", "coordinates": [77.60711669921875, 14.733762741088867]}, "properties": {"suitability_probability": 0.5412}}, {"type": "Feature", "geometry": {"type": "Point", "coordinates": [77.61296081542969, 14.733762741088867]}, "properties": {"suitability_probability": 0.0049}}, {"type": "Feature", "geometry": {"type": "Point", "coordinates": [77.6187973022461, 14.733762741088867]}, "properties": {"suitability_probability": 0.0062}}, {"type": "Feature", "geometry": {"type": "Point", "coordinates": [77.6246337890625, 14.733762741088867]}, "properties": {"suitability_probability": 0.0016}}, {"type": "Feature", "geometry": {"type": "Point", "coordinates": [77.63047790527344, 14.733762741088867]}, "properties": {"suitability_probability": 0.7589}}, {"type": "Feature", "geometry": {"type": "Point", "coordinates": [77.63631439208984, 14.733762741088867]}, "properties": {"suitability_probability": 0.0248}}, {"type": "Feature", "geometry": {"type": "Point", "coordinates": [77.64215087890625, 14.733762741088867]}, "properties": {"suitability_probability": 0.0229}}, {"type": "Feature", "geometry": {"type": "Point", "coordinates": [77.64799499511719, 14.733762741088867]}, "properties": {"suitability_probability": 0.0008}}, {"type": "Feature", "geometry": {"type": "Point", "coordinates": [77.6538314819336, 14.733762741088867]}, "properties": {"suitability_probability": 0.0012}}, {"type": "Feature", "geometry": {"type": "Point", "coordinates": [77.65966796875, 14.733762741088867]}, "properties": {"suitability_probability": 0.8381}}, {"type": "Feature", "geometry": {"type": "Point", "coordinates": [77.66551208496094, 14.733762741088867]}, "properties": {"suitability_probability": 0.4866}}, {"type": "Feature", "geometry": {"type": "Point", "coordinates": [77.67134857177734, 14.733762741088867]}, "properties": {"suitability_probability": 0.9409}}, {"type": "Feature", "geometry": {"type": "Point", "coordinates": [77.5487289428711, 14.727924346923828]}, "properties": {"suitability_probability": 0.0059}}, {"type": "Feature", "geometry": {"type": "Point", "coordinates": [77.5545654296875, 14.727924346923828]}, "properties": {"suitability_probability": 0.1127}}, {"type": "Feature", "geometry": {"type": "Point", "coordinates": [77.56040954589844, 14.727924346923828]}, "properties": {"suitability_probability": 0.0569}}, {"type": "Feature", "geometry": {"type": "Point", "coordinates": [77.56624603271484, 14.727924346923828]}, "properties": {"suitability_probability": 0.0014}}, {"type": "Feature", "geometry": {"type": "Point", "coordinates": [77.57208251953125, 14.727924346923828]}, "properties": {"suitability_probability": 0.0011}}, {"type": "Feature", "geometry": {"type": "Point", "coordinates": [77.57792663574219, 14.727924346923828]}, "properties": {"suitability_probability": 0.3926}}, {"type": "Feature", "geometry": {"type": "Point", "coordinates": [77.5837631225586, 14.727924346923828]}, "properties": {"suitability_probability": 0.1586}}, {"type": "Feature", "geometry": {"type": "Point", "coordinates": [77.589599609375, 14.727924346923828]}, "properties": {"suitability_probability": 0.7042}}, {"type": "Feature", "geometry": {"type": "Point", "coordinates": [77.59544372558594, 14.727924346923828]}, "properties": {"suitability_probability": 0.9938}}, {"type": "Feature", "geometry": {"type": "Point", "coordinates": [77.60128021240234, 14.727924346923828]}, "properties": {"suitability_probability": 0.0012}}, {"type": "Feature", "geometry": {"type": "Point", "coordinates": [77.60711669921875, 14.727924346923828]}, "properties": {"suitability_probability": 0.0269}}, {"type": "Feature", "geometry": {"type": "Point", "coordinates": [77.61296081542969, 14.727924346923828]}, "properties": {"suitability_probability": 0.0072}}, {"type": "Feature", "geometry": {"type": "Point", "coordinates": [77.6187973022461, 14.727924346923828]}, "properties": {"suitability_probability": 0.0826}}, {"type": "Feature", "geometry": {"type": "Point", "coordinates": [77.6246337890625, 14.727924346923828]}, "properties": {"suitability_probability": 0.0297}}, {"type": "Feature", "geometry": {"type": "Point", "coordinates": [77.63047790527344, 14.727924346923828]}, "properties": {"suitability_probability": 0.3662}}, {"type": "Feature", "geometry": {"type": "Point", "coordinates": [77.63631439208984, 14.727924346923828]}, "properties": {"suitability_probability": 0.9996}}, {"type": "Feature", "geometry": {"type": "Point", "coordinates": [77.64215087890625, 14.727924346923828]}, "properties": {"suitability_probability": 0.3859}}, {"type": "Feature", "geometry": {"type": "Point", "coordinates": [77.64799499511719, 14.727924346923828]}, "properties": {"suitability_probability": 0.0051}}, {"type": "Feature", "geometry": {"type": "Point", "coordinates": [77.6538314819336, 14.727924346923828]}, "properties": {"suitability_probability": 0.0004}}, {"type": "Feature", "geometry": {"type": "Point", "coordinates": [77.65966796875, 14.727924346923828]}, "properties": {"suitability_probability": 0.0009}}, {"type": "Feature", "geometry": {"type": "Point", "coordinates": [77.66551208496094, 14.727924346923828]}, "properties": {"suitability_probability": 0.0041}}, {"type": "Feature", "geometry": {"type": "Point", "coordinates": [77.67134857177734, 14.727924346923828]}, "properties": {"suitability_probability": 0.0015}}, {"type": "Feature", "geometry": {"type": "Point", "coordinates": [77.5487289428711, 14.722084999084473]}, "properties": {"suitability_probability": 0.0024}}, {"type": "Feature", "geometry": {"type": "Point", "coordinates": [77.5545654296875, 14.722084999084473]}, "properties": {"suitability_probability": 0.0068}}, {"type": "Feature", "geometry": {"type": "Point", "coordinates": [77.56040954589844, 14.722084999084473]}, "properties": {"suitability_probability": 0.0157}}, {"type": "Feature", "geometry": {"type": "Point", "coordinates": [77.56624603271484, 14.722084999084473]}, "properties": {"suitability_probability": 0.0031}}, {"type": "Feature", "geometry": {"type": "Point", "coordinates": [77.57208251953125, 14.722084999084473]}, "properties": {"suitability_probability": 0.0216}}, {"type": "Feature", "geometry": {"type": "Point", "coordinates": [77.57792663574219, 14.722084999084473]}, "properties": {"suitability_probability": 0.0157}}, {"type": "Feature", "geometry": {"type": "Point", "coordinates": [77.5837631225586, 14.722084999084473]}, "properties": {"suitability_probability": 0.1198}}, {"type": "Feature", "geometry": {"type": "Point", "coordinates": [77.589599609375, 14.722084999084473]}, "properties": {"suitability_probability": 0.031}}, {"type": "Feature", "geometry": {"type": "Point", "coordinates": [77.59544372558594, 14.722084999084473]}, "properties": {"suitability_probability": 0.0011}}, {"type": "Feature", "geometry": {"type": "Point", "coordinates": [77.60128021240234, 14.722084999084473]}, "properties": {"suitability_probability": 0.0094}}, {"type": "Feature", "geometry": {"type": "Point", "coordinates": [77.60711669921875, 14.722084999084473]}, "properties": {"suitability_probability": 0.0544}}, {"type": "Feature", "geometry": {"type": "Point", "coordinates": [77.61296081542969, 14.722084999084473]}, "properties": {"suitability_probability": 0.057}}, {"type": "Feature", "geometry": {"type": "Point", "coordinates": [77.6187973022461, 14.722084999084473]}, "properties": {"suitability_probability": 0.0049}}, {"type": "Feature", "geometry": {"type": "Point", "coordinates": [77.6246337890625, 14.722084999084473]}, "properties": {"suitability_probability": 0.3787}}, {"type": "Feature", "geometry": {"type": "Point", "coordinates": [77.63047790527344, 14.722084999084473]}, "properties": {"suitability_probability": 0.5791}}, {"type": "Feature", "geometry": {"type": "Point", "coordinates": [77.63631439208984, 14.722084999084473]}, "properties": {"suitability_probability": 0.0072}}, {"type": "Feature", "geometry": {"type": "Point", "coordinates": [77.64215087890625, 14.722084999084473]}, "properties": {"suitability_probability": 0.0095}}, {"type": "Feature", "geometry": {"type": "Point", "coordinates": [77.64799499511719, 14.722084999084473]}, "properties": {"suitability_probability": 0.9261}}, {"type": "Feature", "geometry": {"type": "Point", "coordinates": [77.6538314819336, 14.722084999084473]}, "properties": {"suitability_probability": 0.0227}}, {"type": "Feature", "geometry": {"type": "Point", "coordinates": [77.65966796875, 14.722084999084473]}, "properties": {"suitability_probability": 0.0006}}, {"type": "Feature", "geometry": {"type": "Point", "coordinates": [77.66551208496094, 14.722084999084473]}, "properties": {"suitability_probability": 0.0022}}, {"type": "Feature", "geometry": {"type": "Point", "coordinates": [77.67134857177734, 14.722084999084473]}, "properties": {"suitability_probability": 0.0027}}, {"type": "Feature", "geometry": {"type": "Point", "coordinates": [77.5487289428711, 14.716245651245117]}, "properties": {"suitability_probability": 0.0073}}, {"type": "Feature", "geometry": {"type": "Point", "coordinates": [77.5545654296875, 14.716245651245117]}, "properties": {"suitability_probability": 0.161}}, {"type": "Feature", "geometry": {"type": "Point", "coordinates": [77.56040954589844, 14.716245651245117]}, "properties": {"suitability_probability": 0.1965}}, {"type": "Feature", "geometry": {"type": "Point", "coordinates": [77.56624603271484, 14.716245651245117]}, "properties": {"suitability_probability": 0.0131}}, {"type": "Feature", "geometry": {"type": "Point", "coordinates": [77.57208251953125, 14.716245651245117]}, "properties": {"suitability_probability": 0.7802}}, {"type": "Feature", "geometry": {"type": "Point", "coordinates": [77.57792663574219, 14.716245651245117]}, "properties": {"suitability_probability": 0.0429}}, {"type": "Feature", "geometry": {"type": "Point", "coordinates": [77.5837631225586, 14.716245651245117]}, "properties": {"suitability_probability": 0.0235}}, {"type": "Feature", "geometry": {"type": "Point", "coordinates": [77.589599609375, 14.716245651245117]}, "properties": {"suitability_probability": 0.3347}}, {"type": "Feature", "geometry": {"type": "Point", "coordinates": [77.59544372558594, 14.716245651245117]}, "properties": {"suitability_probability": 0.0228}}, {"type": "Feature", "geometry": {"type": "Point", "coordinates": [77.60128021240234, 14.716245651245117]}, "properties": {"suitability_probability": 0.0028}}, {"type": "Feature", "geometry": {"type": "Point", "coordinates": [77.60711669921875, 14.716245651245117]}, "properties": {"suitability_probability": 0.7132}}, {"type": "Feature", "geometry": {"type": "Point", "coordinates": [77.61296081542969, 14.716245651245117]}, "properties": {"suitability_probability": 0.0562}}, {"type": "Feature", "geometry": {"type": "Point", "coordinates": [77.6187973022461, 14.716245651245117]}, "properties": {"suitability_probability": 0.0009}}, {"type": "Feature", "geometry": {"type": "Point", "coordinates": [77.6246337890625, 14.716245651245117]}, "properties": {"suitability_probability": 0.0818}}, {"type": "Feature", "geometry": {"type": "Point", "coordinates": [77.63047790527344, 14.716245651245117]}, "properties": {"suitability_probability": 0.1665}}, {"type": "Feature", "geometry": {"type": "Point", "coordinates": [77.63631439208984, 14.716245651245117]}, "properties": {"suitability_probability": 0.7833}}, {"type": "Feature", "geometry": {"type": "Point", "coordinates": [77.64215087890625, 14.716245651245117]}, "properties": {"suitability_probability": 0.0186}}, {"type": "Feature", "geometry": {"type": "Point", "coordinates": [77.64799499511719, 14.716245651245117]}, "properties": {"suitability_probability": 0.0118}}, {"type": "Feature", "geometry": {"type": "Point", "coordinates": [77.6538314819336, 14.716245651245117]}, "properties": {"suitability_probability": 0.0109}}, {"type": "Feature", "geometry": {"type": "Point", "coordinates": [77.65966796875, 14.716245651245117]}, "properties": {"suitability_probability": 0.0191}}, {"type": "Feature", "geometry": {"type": "Point", "coordinates": [77.66551208496094, 14.716245651245117]}, "properties": {"suitability_probability": 0.0003}}, {"type": "Feature", "geometry": {"type": "Point", "coordinates": [77.67134857177734, 14.716245651245117]}, "properties": {"suitability_probability": 0.0276}}, {"type": "Feature", "geometry": {"type": "Point", "coordinates": [77.5487289428711, 14.710407257080078]}, "properties": {"suitability_probability": 0.0168}}, {"type": "Feature", "geometry": {"type": "Point", "coordinates": [77.5545654296875, 14.710407257080078]}, "properties": {"suitability_probability": 0.5455}}, {"type": "Feature", "geometry": {"type": "Point", "coordinates": [77.56040954589844, 14.710407257080078]}, "properties": {"suitability_probability": 0.2944}}, {"type": "Feature", "geometry": {"type": "Point", "coordinates": [77.56624603271484, 14.710407257080078]}, "properties": {"suitability_probability": 0.0079}}, {"type": "Feature", "geometry": {"type": "Point", "coordinates": [77.57208251953125, 14.710407257080078]}, "properties": {"suitability_probability": 0.0037}}, {"type": "Feature", "geometry": {"type": "Point", "coordinates": [77.57792663574219, 14.710407257080078]}, "properties": {"suitability_probability": 0.9869}}, {"type": "Feature", "geometry": {"type": "Point", "coordinates": [77.5837631225586, 14.710407257080078]}, "properties": {"suitability_probability": 0.0045}}, {"type": "Feature", "geometry": {"type": "Point", "coordinates": [77.589599609375, 14.710407257080078]}, "properties": {"suitability_probability": 0.946}}, {"type": "Feature", "geometry": {"type": "Point", "coordinates": [77.59544372558594, 14.710407257080078]}, "properties": {"suitability_probability": 0.0031}}, {"type": "Feature", "geometry": {"type": "Point", "coordinates": [77.60128021240234, 14.710407257080078]}, "properties": {"suitability_probability": 0.0014}}, {"type": "Feature", "geometry": {"type": "Point", "coordinates": [77.60711669921875, 14.710407257080078]}, "properties": {"suitability_probability": 0.9527}}, {"type": "Feature", "geometry": {"type": "Point", "coordinates": [77.61296081542969, 14.710407257080078]}, "properties": {"suitability_probability": 0.01}}, {"type": "Feature", "geometry": {"type": "Point", "coordinates": [77.6187973022461, 14.710407257080078]}, "properties": {"suitability_probability": 0.0032}}, {"type": "Feature", "geometry": {"type": "Point", "coordinates": [77.6246337890625, 14.710407257080078]}, "properties": {"suitability_probability": 0.0135}}, {"type": "Feature", "geometry": {"type": "Point", "coordinates": [77.63047790527344, 14.710407257080078]}, "properties": {"suitability_probability": 0.0016}}, {"type": "Feature", "geometry": {"type": "Point", "coordinates": [77.63631439208984, 14.710407257080078]}, "properties": {"suitability_probability": 0.0651}}, {"type": "Feature", "geometry": {"type": "Point", "coordinates": [77.64215087890625, 14.710407257080078]}, "properties": {"suitability_probability": 0.6976}}, {"type": "Feature", "geometry": {"type": "Point", "coordinates": [77.64799499511719, 14.710407257080078]}, "properties": {"suitability_probability": 0.0016}}, {"type": "Feature", "geometry": {"type": "Point", "coordinates": [77.6538314819336, 14.710407257080078]}, "properties": {"suitability_probability": 0.1764}}, {"type": "Feature", "geometry": {"type": "Point", "coordinates": [77.65966796875, 14.710407257080078]}, "properties": {"suitability_probability": 0.8733}}, {"type": "Feature", "geometry": {"type": "Point", "coordinates": [77.66551208496094, 14.710407257080078]}, "properties": {"suitability_probability": 0.0033}}, {"type": "Feature", "geometry": {"type": "Point", "coordinates": [77.67134857177734, 14.710407257080078]}, "properties": {"suitability_probability": 0.0799}}, {"type": "Feature", "geometry": {"type": "Point", "coordinates": [77.5487289428711, 14.704567909240723]}, "properties": {"suitability_probability": 0.1767}}, {"type": "Feature", "geometry": {"type": "Point", "coordinates": [77.5545654296875, 14.704567909240723]}, "properties": {"suitability_probability": 0.0085}}, {"type": "Feature", "geometry": {"type": "Point", "coordinates": [77.56040954589844, 14.704567909240723]}, "properties": {"suitability_probability": 0.0063}}, {"type": "Feature", "geometry": {"type": "Point", "coordinates": [77.56624603271484, 14.704567909240723]}, "properties": {"suitability_probability": 0.0005}}, {"type": "Feature", "geometry": {"type": "Point", "coordinates": [77.57208251953125, 14.704567909240723]}, "properties": {"suitability_probability": 0.0024}}, {"type": "Feature", "geometry": {"type": "Point", "coordinates": [77.57792663574219, 14.704567909240723]}, "properties": {"suitability_probability": 0.012}}, {"type": "Feature", "geometry": {"type": "Point", "coordinates": [77.5837631225586, 14.704567909240723]}, "properties": {"suitability_probability": 0.0128}}, {"type": "Feature", "geometry": {"type": "Point", "coordinates": [77.589599609375, 14.704567909240723]}, "properties": {"suitability_probability": 0.0041}}, {"type": "Feature", "geometry": {"type": "Point", "coordinates": [77.59544372558594, 14.704567909240723]}, "properties": {"suitability_probability": 0.6657}}, {"type": "Feature", "geometry": {"type": "Point", "coordinates": [77.60128021240234, 14.704567909240723]}, "properties": {"suitability_probability": 0.9938}}, {"type": "Feature", "geometry": {"type": "Point", "coordinates": [77.60711669921875, 14.704567909240723]}, "properties": {"suitability_probability": 0.3539}}, {"type": "Feature", "geometry": {"type": "Point", "coordinates": [77.61296081542969, 14.704567909240723]}, "properties": {"suitability_probability": 0.7415}}, {"type": "Feature", "geometry": {"type": "Point", "coordinates": [77.6187973022461, 14.704567909240723]}, "properties": {"suitability_probability": 0.0025}}, {"type": "Feature", "geometry": {"type": "Point", "coordinates": [77.6246337890625, 14.704567909240723]}, "properties": {"suitability_probability": 0.0006}}, {"type": "Feature", "geometry": {"type": "Point", "coordinates": [77.63047790527344, 14.704567909240723]}, "properties": {"suitability_probability": 0.0123}}, {"type": "Feature", "geometry": {"type": "Point", "coordinates": [77.63631439208984, 14.704567909240723]}, "properties": {"suitability_probability": 0.9753}}, {"type": "Feature", "geometry": {"type": "Point", "coordinates": [77.64215087890625, 14.704567909240723]}, "properties": {"suitability_probability": 0.1895}}, {"type": "Feature", "geometry": {"type": "Point", "coordinates": [77.64799499511719, 14.704567909240723]}, "properties": {"suitability_probability": 0.0175}}, {"type": "Feature", "geometry": {"type": "Point", "coordinates": [77.6538314819336, 14.704567909240723]}, "properties": {"suitability_probability": 0.014}}, {"type": "Feature", "geometry": {"type": "Point", "coordinates": [77.65966796875, 14.704567909240723]}, "properties": {"suitability_probability": 0.9693}}, {"type": "Feature", "geometry": {"type": "Point", "coordinates": [77.66551208496094, 14.704567909240723]}, "properties": {"suitability_probability": 0.4779}}, {"type": "Feature", "geometry": {"type": "Point", "coordinates": [77.67134857177734, 14.704567909240723]}, "properties": {"suitability_probability": 0.0375}}, {"type": "Feature", "geometry": {"type": "Point", "coordinates": [77.5487289428711, 14.698728561401367]}, "properties": {"suitability_probability": 0.002}}, {"type": "Feature", "geometry": {"type": "Point", "coordinates": [77.5545654296875, 14.698728561401367]}, "properties": {"suitability_probability": 0.0005}}, {"type": "Feature", "geometry": {"type": "Point", "coordinates": [77.56040954589844, 14.698728561401367]}, "properties": {"suitability_probability": 0.0015}}, {"type": "Feature", "geometry": {"type": "Point", "coordinates": [77.56624603271484, 14.698728561401367]}, "properties": {"suitability_probability": 0.2616}}, {"type": "Feature", "geometry": {"type": "Point", "coordinates": [77.57208251953125, 14.698728561401367]}, "properties": {"suitability_probability": 0.0029}}, {"type": "Feature", "geometry": {"type": "Point", "coordinates": [77.57792663574219, 14.698728561401367]}, "properties": {"suitability_probability": 0.0003}}, {"type": "Feature", "geometry": {"type": "Point", "coordinates": [77.5837631225586, 14.698728561401367]}, "properties": {"suitability_probability": 0.0003}}, {"type": "Feature", "geometry": {"type": "Point", "coordinates": [77.589599609375, 14.698728561401367]}, "properties": {"suitability_probability": 0.0277}}, {"type": "Feature", "geometry": {"type": "Point", "coordinates": [77.59544372558594, 14.698728561401367]}, "properties": {"suitability_probability": 0.0045}}, {"type": "Feature", "geometry": {"type": "Point", "coordinates": [77.60128021240234, 14.698728561401367]}, "properties": {"suitability_probability": 0.3089}}, {"type": "Feature", "geometry": {"type": "Point", "coordinates": [77.60711669921875, 14.698728561401367]}, "properties": {"suitability_probability": 0.0617}}, {"type": "Feature", "geometry": {"type": "Point", "coordinates": [77.61296081542969, 14.698728561401367]}, "properties": {"suitability_probability": 0.0225}}, {"type": "Feature", "geometry": {"type": "Point", "coordinates": [77.6187973022461, 14.698728561401367]}, "properties": {"suitability_probability": 0.0343}}, {"type": "Feature", "geometry": {"type": "Point", "coordinates": [77.6246337890625, 14.698728561401367]}, "properties": {"suitability_probability": 0.0062}}, {"type": "Feature", "geometry": {"type": "Point", "coordinates": [77.63047790527344, 14.698728561401367]}, "properties": {"suitability_probability": 0.003}}, {"type": "Feature", "geometry": {"type": "Point", "coordinates": [77.63631439208984, 14.698728561401367]}, "properties": {"suitability_probability": 0.0503}}, {"type": "Feature", "geometry": {"type": "Point", "coordinates": [77.64215087890625, 14.698728561401367]}, "properties": {"suitability_probability": 0.0011}}, {"type": "Feature", "geometry": {"type": "Point", "coordinates": [77.64799499511719, 14.698728561401367]}, "properties": {"suitability_probability": 0.0046}}, {"type": "Feature", "geometry": {"type": "Point", "coordinates": [77.6538314819336, 14.698728561401367]}, "properties": {"suitability_probability": 0.0053}}, {"type": "Feature", "geometry": {"type": "Point", "coordinates": [77.65966796875, 14.698728561401367]}, "properties": {"suitability_probability": 0.0018}}, {"type": "Feature", "geometry": {"type": "Point", "coordinates": [77.66551208496094, 14.698728561401367]}, "properties": {"suitability_probability": 0.891}}, {"type": "Feature", "geometry": {"type": "Point", "coordinates": [77.67134857177734, 14.698728561401367]}, "properties": {"suitability_probability": 0.0105}}, {"type": "Feature", "geometry": {"type": "Point", "coordinates": [77.5487289428711, 14.692890167236328]}, "properties": {"suitability_probability": 0.1714}}, {"type": "Feature", "geometry": {"type": "Point", "coordinates": [77.5545654296875, 14.692890167236328]}, "properties": {"suitability_probability": 0.0315}}, {"type": "Feature", "geometry": {"type": "Point", "coordinates": [77.56040954589844, 14.692890167236328]}, "properties": {"suitability_probability": 0.001}}, {"type": "Feature", "geometry": {"type": "Point", "coordinates": [77.56624603271484, 14.692890167236328]}, "properties": {"suitability_probability": 0.0007}}, {"type": "Feature", "geometry": {"type": "Point", "coordinates": [77.57208251953125, 14.692890167236328]}, "properties": {"suitability_probability": 0.0005}}, {"type": "Feature", "geometry": {"type": "Point", "coordinates": [77.57792663574219, 14.692890167236328]}, "properties": {"suitability_probability": 0.0295}}, {"type": "Feature", "geometry": {"type": "Point", "coordinates": [77.5837631225586, 14.692890167236328]}, "properties": {"suitability_probability": 0.0016}}, {"type": "Feature", "geometry": {"type": "Point", "coordinates": [77.589599609375, 14.692890167236328]}, "properties": {"suitability_probability": 0.0045}}, {"type": "Feature", "geometry": {"type": "Point", "coordinates": [77.59544372558594, 14.692890167236328]}, "properties": {"suitability_probability": 0.0002}}, {"type": "Feature", "geometry": {"type": "Point", "coordinates": [77.60128021240234, 14.692890167236328]}, "properties": {"suitability_probability": 0.0304}}, {"type": "Feature", "geometry": {"type": "Point", "coordinates": [77.60711669921875, 14.692890167236328]}, "properties": {"suitability_probability": 0.0261}}, {"type": "Feature", "geometry": {"type": "Point", "coordinates": [77.61296081542969, 14.692890167236328]}, "properties": {"suitability_probability": 0.0013}}, {"type": "Feature", "geometry": {"type": "Point", "coordinates": [77.6187973022461, 14.692890167236328]}, "properties": {"suitability_probability": 0.9595}}, {"type": "Feature", "geometry": {"type": "Point", "coordinates": [77.6246337890625, 14.692890167236328]}, "properties": {"suitability_probability": 0.0036}}, {"type": "Feature", "geometry": {"type": "Point", "coordinates": [77.63047790527344, 14.692890167236328]}, "properties": {"suitability_probability": 0.001}}, {"type": "Feature", "geometry": {"type": "Point", "coordinates": [77.63631439208984, 14.692890167236328]}, "properties": {"suitability_probability": 0.001}}, {"type": "Feature", "geometry": {"type": "Point", "coordinates": [77.64215087890625, 14.692890167236328]}, "properties": {"suitability_probability": 0.0056}}, {"type": "Feature", "geometry": {"type": "Point", "coordinates": [77.64799499511719, 14.692890167236328]}, "properties": {"suitability_probability": 0.004}}, {"type": "Feature", "geometry": {"type": "Point", "coordinates": [77.6538314819336, 14.692890167236328]}, "properties": {"suitability_probability": 0.9551}}, {"type": "Feature", "geometry": {"type": "Point", "coordinates": [77.65966796875, 14.692890167236328]}, "properties": {"suitability_probability": 0.0015}}, {"type": "Feature", "geometry": {"type": "Point", "coordinates": [77.66551208496094, 14.692890167236328]}, "properties": {"suitability_probability": 0.0592}}, {"type": "Feature", "geometry": {"type": "Point", "coordinates": [77.67134857177734, 14.692890167236328]}, "properties": {"suitability_probability": 0.495}}, {"type": "Feature", "geometry": {"type": "Point", "coordinates": [77.5487289428711, 14.687050819396973]}, "properties": {"suitability_probability": 0.0013}}, {"type": "Feature", "geometry": {"type": "Point", "coordinates": [77.5545654296875, 14.687050819396973]}, "properties": {"suitability_probability": 0.003}}, {"type": "Feature", "geometry": {"type": "Point", "coordinates": [77.56040954589844, 14.687050819396973]}, "properties": {"suitability_probability": 0.0119}}, {"type": "Feature", "geometry": {"type": "Point", "coordinates": [77.56624603271484, 14.687050819396973]}, "properties": {"suitability_probability": 0.2111}}, {"type": "Feature", "geometry": {"type": "Point", "coordinates": [77.57208251953125, 14.687050819396973]}, "properties": {"suitability_probability": 0.0883}}, {"type": "Feature", "geometry": {"type": "Point", "coordinates": [77.57792663574219, 14.687050819396973]}, "properties": {"suitability_probability": 0.4386}}, {"type": "Feature", "geometry": {"type": "Point", "coordinates": [77.5837631225586, 14.687050819396973]}, "properties": {"suitability_probability": 0.0018}}, {"type": "Feature", "geometry": {"type": "Point", "coordinates": [77.589599609375, 14.687050819396973]}, "properties": {"suitability_probability": 0.0006}}, {"type": "Feature", "geometry": {"type": "Point", "coordinates": [77.59544372558594, 14.687050819396973]}, "properties": {"suitability_probability": 0.0028}}, {"type": "Feature", "geometry": {"type": "Point", "coordinates": [77.60128021240234, 14.687050819396973]}, "properties": {"suitability_probability": 0.0188}}, {"type": "Feature", "geometry": {"type": "Point", "coordinates": [77.60711669921875, 14.687050819396973]}, "properties": {"suitability_probability": 0.0626}}, {"type": "Feature", "geometry": {"type": "Point", "coordinates": [77.61296081542969, 14.687050819396973]}, "properties": {"suitability_probability": 0.5302}}, {"type": "Feature", "geometry": {"type": "Point", "coordinates": [77.6187973022461, 14.687050819396973]}, "properties": {"suitability_probability": 0.2781}}, {"type": "Feature", "geometry": {"type": "Point", "coordinates": [77.6246337890625, 14.687050819396973]}, "properties": {"suitability_probability": 0.0953}}, {"type": "Feature", "geometry": {"type": "Point", "coordinates": [77.63047790527344, 14.687050819396973]}, "properties": {"suitability_probability": 0.0007}}, {"type": "Feature", "geometry": {"type": "Point", "coordinates": [77.63631439208984, 14.687050819396973]}, "properties": {"suitability_probability": 0.0977}}, {"type": "Feature", "geometry": {"type": "Point", "coordinates": [77.64215087890625, 14.687050819396973]}, "properties": {"suitability_probability": 0.001}}, {"type": "Feature", "geometry": {"type": "Point", "coordinates": [77.64799499511719, 14.687050819396973]}, "properties": {"suitability_probability": 0.0056}}, {"type": "Feature", "geometry": {"type": "Point", "coordinates": [77.6538314819336, 14.687050819396973]}, "properties": {"suitability_probability": 0.004}}, {"type": "Feature", "geometry": {"type": "Point", "coordinates": [77.65966796875, 14.687050819396973]}, "properties": {"suitability_probability": 0.756}}, {"type": "Feature", "geometry": {"type": "Point", "coordinates": [77.66551208496094, 14.687050819396973]}, "properties": {"suitability_probability": 0.0064}}, {"type": "Feature", "geometry": {"type": "Point", "coordinates": [77.67134857177734, 14.687050819396973]}, "properties": {"suitability_probability": 0.8178}}, {"type": "Feature", "geometry": {"type": "Point", "coordinates": [77.5487289428711, 14.681211471557617]}, "properties": {"suitability_probability": 0.0008}}, {"type": "Feature", "geometry": {"type": "Point", "coordinates": [77.5545654296875, 14.681211471557617]}, "properties": {"suitability_probability": 0.0023}}, {"type": "Feature", "geometry": {"type": "Point", "coordinates": [77.56040954589844, 14.681211471557617]}, "properties": {"suitability_probability": 0.0239}}, {"type": "Feature", "geometry": {"type": "Point", "coordinates": [77.56624603271484, 14.681211471557617]}, "properties": {"suitability_probability": 0.0082}}, {"type": "Feature", "geometry": {"type": "Point", "coordinates": [77.57208251953125, 14.681211471557617]}, "properties": {"suitability_probability": 0.0036}}, {"type": "Feature", "geometry": {"type": "Point", "coordinates": [77.57792663574219, 14.681211471557617]}, "properties": {"suitability_probability": 0.0965}}, {"type": "Feature", "geometry": {"type": "Point", "coordinates": [77.5837631225586, 14.681211471557617]}, "properties": {"suitability_probability": 0.0031}}, {"type": "Feature", "geometry": {"type": "Point", "coordinates": [77.589599609375, 14.681211471557617]}, "properties": {"suitability_probability": 0.0036}}, {"type": "Feature", "geometry": {"type": "Point", "coordinates": [77.59544372558594, 14.681211471557617]}, "properties": {"suitability_probability": 0.0072}}, {"type": "Feature", "geometry": {"type": "Point", "coordinates": [77.60128021240234, 14.681211471557617]}, "properties": {"suitability_probability": 0.0179}}, {"type": "Feature", "geometry": {"type": "Point", "coordinates": [77.60711669921875, 14.681211471557617]}, "properties": {"suitability_probability": 0.0135}}, {"type": "Feature", "geometry": {"type": "Point", "coordinates": [77.61296081542969, 14.681211471557617]}, "properties": {"suitability_probability": 0.001}}, {"type": "Feature", "geometry": {"type": "Point", "coordinates": [77.6187973022461, 14.681211471557617]}, "properties": {"suitability_probability": 0.0024}}, {"type": "Feature", "geometry": {"type": "Point", "coordinates": [77.6246337890625, 14.681211471557617]}, "properties": {"suitability_probability": 0.0166}}, {"type": "Feature", "geometry": {"type": "Point", "coordinates": [77.63047790527344, 14.681211471557617]}, "properties": {"suitability_probability": 0.9349}}, {"type": "Feature", "geometry": {"type": "Point", "coordinates": [77.63631439208984, 14.681211471557617]}, "properties": {"suitability_probability": 0.0034}}, {"type": "Feature", "geometry": {"type": "Point", "coordinates": [77.64215087890625, 14.681211471557617]}, "properties": {"suitability_probability": 0.0016}}, {"type": "Feature", "geometry": {"type": "Point", "coordinates": [77.64799499511719, 14.681211471557617]}, "properties": {"suitability_probability": 0.0077}}, {"type": "Feature", "geometry": {"type": "Point", "coordinates": [77.6538314819336, 14.681211471557617]}, "properties": {"suitability_probability": 0.0029}}, {"type": "Feature", "geometry": {"type": "Point", "coordinates": [77.65966796875, 14.681211471557617]}, "properties": {"suitability_probability": 0.5023}}, {"type": "Feature", "geometry": {"type": "Point", "coordinates": [77.66551208496094, 14.681211471557617]}, "properties": {"suitability_probability": 0.0016}}, {"type": "Feature", "geometry": {"type": "Point", "coordinates": [77.67134857177734, 14.681211471557617]}, "properties": {"suitability_probability": 0.0005}}, {"type": "Feature", "geometry": {"type": "Point", "coordinates": [77.5487289428711, 14.675372123718262]}, "properties": {"suitability_probability": 0.0483}}, {"type": "Feature", "geometry": {"type": "Point", "coordinates": [77.5545654296875, 14.675372123718262]}, "properties": {"suitability_probability": 0.0093}}, {"type": "Feature", "geometry": {"type": "Point", "coordinates": [77.56040954589844, 14.675372123718262]}, "properties": {"suitability_probability": 0.0022}}, {"type": "Feature", "geometry": {"type": "Point", "coordinates": [77.56624603271484, 14.675372123718262]}, "properties": {"suitability_probability": 0.9896}}, {"type": "Feature", "geometry": {"type": "Point", "coordinates": [77.57208251953125, 14.675372123718262]}, "properties": {"suitability_probability": 0.0053}}, {"type": "Feature", "geometry": {"type": "Point", "coordinates": [77.57792663574219, 14.675372123718262]}, "properties": {"suitability_probability": 0.003}}, {"type": "Feature", "geometry": {"type": "Point", "coordinates": [77.5837631225586, 14.675372123718262]}, "properties": {"suitability_probability": 0.3944}}, {"type": "Feature", "geometry": {"type": "Point", "coordinates": [77.589599609375, 14.675372123718262]}, "properties": {"suitability_probability": 0.0166}}, {"type": "Feature", "geometry": {"type": "Point", "coordinates": [77.59544372558594, 14.675372123718262]}, "properties": {"suitability_probability": 0.0055}}, {"type": "Feature", "geometry": {"type": "Point", "coordinates": [77.60128021240234, 14.675372123718262]}, "properties": {"suitability_probability": 0.4661}}, {"type": "Feature", "geometry": {"type": "Point", "coordinates": [77.60711669921875, 14.675372123718262]}, "properties": {"suitability_probability": 0.0006}}, {"type": "Feature", "geometry": {"type": "Point", "coordinates": [77.61296081542969, 14.675372123718262]}, "properties": {"suitability_probability": 0.0382}}, {"type": "Feature", "geometry": {"type": "Point", "coordinates": [77.6187973022461, 14.675372123718262]}, "properties": {"suitability_probability": 0.0396}}, {"type": "Feature", "geometry": {"type": "Point", "coordinates": [77.6246337890625, 14.675372123718262]}, "properties": {"suitability_probability": 0.0017}}, {"type": "Feature", "geometry": {"type": "Point", "coordinates": [77.63047790527344, 14.675372123718262]}, "properties": {"suitability_probability": 0.688}}, {"type": "Feature", "geometry": {"type": "Point", "coordinates": [77.63631439208984, 14.675372123718262]}, "properties": {"suitability_probability": 0.0042}}, {"type": "Feature", "geometry": {"type": "Point", "coordinates": [77.64215087890625, 14.675372123718262]}, "properties": {"suitability_probability": 0.1971}}, {"type": "Feature", "geometry": {"type": "Point", "coordinates": [77.64799499511719, 14.675372123718262]}, "properties": {"suitability_probability": 0.0029}}, {"type": "Feature", "geometry": {"type": "Point", "coordinates": [77.6538314819336, 14.675372123718262]}, "properties": {"suitability_probability": 0.11}}, {"type": "Feature", "geometry": {"type": "Point", "coordinates": [77.65966796875, 14.675372123718262]}, "properties": {"suitability_probability": 0.9975}}, {"type": "Feature", "geometry": {"type": "Point", "coordinates": [77.66551208496094, 14.675372123718262]}, "properties": {"suitability_probability": 0.0558}}, {"type": "Feature", "geometry": {"type": "Point", "coordinates": [77.67134857177734, 14.675372123718262]}, "properties": {"suitability_probability": 0.8213}}, {"type": "Feature", "geometry": {"type": "Point", "coordinates": [77.5487289428711, 14.669533729553223]}, "properties": {"suitability_probability": 0.0099}}, {"type": "Feature", "geometry": {"type": "Point", "coordinates": [77.5545654296875, 14.669533729553223]}, "properties": {"suitability_probability": 0.0005}}, {"type": "Feature", "geometry": {"type": "Point", "coordinates": [77.56040954589844, 14.669533729553223]}, "properties": {"suitability_probability": 0.0069}}, {"type": "Feature", "geometry": {"type": "Point", "coordinates": [77.56624603271484, 14.669533729553223]}, "properties": {"suitability_probability": 0.2621}}, {"type": "Feature", "geometry": {"type": "Point", "coordinates": [77.57208251953125, 14.669533729553223]}, "properties": {"suitability_probability": 0.9393}}, {"type": "Feature", "geometry": {"type": "Point", "coordinates": [77.57792663574219, 14.669533729553223]}, "properties": {"suitability_probability": 0.0097}}, {"type": "Feature", "geometry": {"type": "Point", "coordinates": [77.5837631225586, 14.669533729553223]}, "properties": {"suitability_probability": 0.5115}}, {"type": "Feature", "geometry": {"type": "Point", "coordinates": [77.589599609375, 14.669533729553223]}, "properties": {"suitability_probability": 0.0171}}, {"type": "Feature", "geometry": {"type": "Point", "coordinates": [77.59544372558594, 14.669533729553223]}, "properties": {"suitability_probability": 0.0003}}, {"type": "Feature", "geometry": {"type": "Point", "coordinates": [77.60128021240234, 14.669533729553223]}, "properties": {"suitability_probability": 0.139}}, {"type": "Feature", "geometry": {"type": "Point", "coordinates": [77.60711669921875, 14.669533729553223]}, "properties": {"suitability_probability": 0.0032}}, {"type": "Feature", "geometry": {"type": "Point", "coordinates": [77.61296081542969, 14.669533729553223]}, "properties": {"suitability_probability": 0.0147}}, {"type": "Feature", "geometry": {"type": "Point", "coordinates": [77.6187973022461, 14.669533729553223]}, "properties": {"suitability_probability": 0.0027}}, {"type": "Feature", "geometry": {"type": "Point", "coordinates": [77.6246337890625, 14.669533729553223]}, "properties": {"suitability_probability": 0.005}}, {"type": "Feature", "geometry": {"type": "Point", "coordinates": [77.63047790527344, 14.669533729553223]}, "properties": {"suitability_probability": 0.9062}}, {"type": "Feature", "geometry": {"type": "Point", "coordinates": [77.63631439208984, 14.669533729553223]}, "properties": {"suitability_probability": 0.0018}}, {"type": "Feature", "geometry": {"type": "Point", "coordinates": [77.64215087890625, 14.669533729553223]}, "properties": {"suitability_probability": 0.0726}}, {"type": "Feature", "geometry": {"type": "Point", "coordinates": [77.64799499511719, 14.669533729553223]}, "properties": {"suitability_probability": 0.6076}}, {"type": "Feature", "geometry": {"type": "Point", "coordinates": [77.6538314819336, 14.669533729553223]}, "properties": {"suitability_probability": 0.0078}}, {"type": "Feature", "geometry": {"type": "Point", "coordinates": [77.65966796875, 14.669533729553223]}, "properties": {"suitability_probability": 0.6259}}, {"type": "Feature", "geometry": {"type": "Point", "coordinates": [77.66551208496094, 14.669533729553223]}, "properties": {"suitability_probability": 0.0024}}, {"type": "Feature", "geometry": {"type": "Point", "coordinates": [77.67134857177734, 14.669533729553223]}, "properties": {"suitability_probability": 0.0055}}, {"type": "Feature", "geometry": {"type": "Point", "coordinates": [77.5487289428711, 14.663694381713867]}, "properties": {"suitability_probability": 0.0596}}, {"type": "Feature", "geometry": {"type": "Point", "coordinates": [77.5545654296875, 14.663694381713867]}, "properties": {"suitability_probability": 0.0104}}, {"type": "Feature", "geometry": {"type": "Point", "coordinates": [77.56040954589844, 14.663694381713867]}, "properties": {"suitability_probability": 0.1709}}, {"type": "Feature", "geometry": {"type": "Point", "coordinates": [77.56624603271484, 14.663694381713867]}, "properties": {"suitability_probability": 0.0029}}, {"type": "Feature", "geometry": {"type": "Point", "coordinates": [77.57208251953125, 14.663694381713867]}, "properties": {"suitability_probability": 0.0551}}, {"type": "Feature", "geometry": {"type": "Point", "coordinates": [77.57792663574219, 14.663694381713867]}, "properties": {"suitability_probability": 0.0168}}, {"type": "Feature", "geometry": {"type": "Point", "coordinates": [77.5837631225586, 14.663694381713867]}, "properties": {"suitability_probability": 0.0005}}, {"type": "Feature", "geometry": {"type": "Point", "coordinates": [77.589599609375, 14.663694381713867]}, "properties": {"suitability_probability": 0.0013}}, {"type": "Feature", "geometry": {"type": "Point", "coordinates": [77.59544372558594, 14.663694381713867]}, "properties": {"suitability_probability": 0.2325}}, {"type": "Feature", "geometry": {"type": "Point", "coordinates": [77.60128021240234, 14.663694381713867]}, "properties": {"suitability_probability": 0.0021}}, {"type": "Feature", "geometry": {"type": "Point", "coordinates": [77.60711669921875, 14.663694381713867]}, "properties": {"suitability_probability": 0.0024}}, {"type": "Feature", "geometry": {"type": "Point", "coordinates": [77.61296081542969, 14.663694381713867]}, "properties": {"suitability_probability": 0.0166}}, {"type": "Feature", "geometry": {"type": "Point", "coordinates": [77.6187973022461, 14.663694381713867]}, "properties": {"suitability_probability": 0.0046}}, {"type": "Feature", "geometry": {"type": "Point", "coordinates": [77.6246337890625, 14.663694381713867]}, "properties": {"suitability_probability": 0.9937}}, {"type": "Feature", "geometry": {"type": "Point", "coordinates": [77.63047790527344, 14.663694381713867]}, "properties": {"suitability_probability": 0.0424}}, {"type": "Feature", "geometry": {"type": "Point", "coordinates": [77.63631439208984, 14.663694381713867]}, "properties": {"suitability_probability": 0.012}}, {"type": "Feature", "geometry": {"type": "Point", "coordinates": [77.64215087890625, 14.663694381713867]}, "properties": {"suitability_probability": 0.9336}}, {"type": "Feature", "geometry": {"type": "Point", "coordinates": [77.64799499511719, 14.663694381713867]}, "properties": {"suitability_probability": 0.0076}}, {"type": "Feature", "geometry": {"type": "Point", "coordinates": [77.6538314819336, 14.663694381713867]}, "properties": {"suitability_probability": 0.2751}}, {"type": "Feature", "geometry": {"type": "Point", "coordinates": [77.65966796875, 14.663694381713867]}, "properties": {"suitability_probability": 0.7551}}, {"type": "Feature", "geometry": {"type": "Point", "coordinates": [77.66551208496094, 14.663694381713867]}, "properties": {"suitability_probability": 0.4288}}, {"type": "Feature", "geometry": {"type": "Point", "coordinates": [77.67134857177734, 14.663694381713867]}, "properties": {"suitability_probability": 0.1781}}, {"type": "Feature", "geometry": {"type": "Point", "coordinates": [77.5487289428711, 14.657855033874512]}, "properties": {"suitability_probability": 0.0944}}, {"type": "Feature", "geometry": {"type": "Point", "coordinates": [77.5545654296875, 14.657855033874512]}, "properties": {"suitability_probability": 0.0016}}, {"type": "Feature", "geometry": {"type": "Point", "coordinates": [77.56040954589844, 14.657855033874512]}, "properties": {"suitability_probability": 0.0105}}, {"type": "Feature", "geometry": {"type": "Point", "coordinates": [77.56624603271484, 14.657855033874512]}, "properties": {"suitability_probability": 0.0014}}, {"type": "Feature", "geometry": {"type": "Point", "coordinates": [77.57208251953125, 14.657855033874512]}, "properties": {"suitability_probability": 0.9636}}, {"type": "Feature", "geometry": {"type": "Point", "coordinates": [77.57792663574219, 14.657855033874512]}, "properties": {"suitability_probability": 0.0013}}, {"type": "Feature", "geometry": {"type": "Point", "coordinates": [77.5837631225586, 14.657855033874512]}, "properties": {"suitability_probability": 0.0122}}, {"type": "Feature", "geometry": {"type": "Point", "coordinates": [77.589599609375, 14.657855033874512]}, "properties": {"suitability_probability": 0.0052}}, {"type": "Feature", "geometry": {"type": "Point", "coordinates": [77.59544372558594, 14.657855033874512]}, "properties": {"suitability_probability": 0.0147}}, {"type": "Feature", "geometry": {"type": "Point", "coordinates": [77.60128021240234, 14.657855033874512]}, "properties": {"suitability_probability": 0.005}}, {"type": "Feature", "geometry": {"type": "Point", "coordinates": [77.60711669921875, 14.657855033874512]}, "properties": {"suitability_probability": 0.5666}}, {"type": "Feature", "geometry": {"type": "Point", "coordinates": [77.61296081542969, 14.657855033874512]}, "properties": {"suitability_probability": 0.1055}}, {"type": "Feature", "geometry": {"type": "Point", "coordinates": [77.6187973022461, 14.657855033874512]}, "properties": {"suitability_probability": 0.002}}, {"type": "Feature", "geometry": {"type": "Point", "coordinates": [77.6246337890625, 14.657855033874512]}, "properties": {"suitability_probability": 0.027}}, {"type": "Feature", "geometry": {"type": "Point", "coordinates": [77.63047790527344, 14.657855033874512]}, "properties": {"suitability_probability": 0.0886}}, {"type": "Feature", "geometry": {"type": "Point", "coordinates": [77.63631439208984, 14.657855033874512]}, "properties": {"suitability_probability": 0.0331}}, {"type": "Feature", "geometry": {"type": "Point", "coordinates": [77.64215087890625, 14.657855033874512]}, "properties": {"suitability_probability": 0.0008}}, {"type": "Feature", "geometry": {"type": "Point", "coordinates": [77.64799499511719, 14.657855033874512]}, "properties": {"suitability_probability": 0.0616}}, {"type": "Feature", "geometry": {"type": "Point", "coordinates": [77.6538314819336, 14.657855033874512]}, "properties": {"suitability_probability": 0.9725}}, {"type": "Feature", "geometry": {"type": "Point", "coordinates": [77.65966796875, 14.657855033874512]}, "properties": {"suitability_probability": 0.9981}}, {"type": "Feature", "geometry": {"type": "Point", "coordinates": [77.66551208496094, 14.657855033874512]}, "properties": {"suitability_probability": 0.8921}}, {"type": "Feature", "geometry": {"type": "Point", "coordinates": [77.67134857177734, 14.657855033874512]}, "properties": {"suitability_probability": 0.0055}}, {"type": "Feature", "geometry": {"type": "Point", "coordinates": [77.5487289428711, 14.652016639709473]}, "properties": {"suitability_probability": 0.0052}}, {"type": "Feature", "geometry": {"type": "Point", "coordinates": [77.5545654296875, 14.652016639709473]}, "properties": {"suitability_probability": 0.0012}}, {"type": "Feature", "geometry": {"type": "Point", "coordinates": [77.56040954589844, 14.652016639709473]}, "properties": {"suitability_probability": 0.0027}}, {"type": "Feature", "geometry": {"type": "Point", "coordinates": [77.56624603271484, 14.652016639709473]}, "properties": {"suitability_probability": 0.9247}}, {"type": "Feature", "geometry": {"type": "Point", "coordinates": [77.57208251953125, 14.652016639709473]}, "properties": {"suitability_probability": 0.0327}}, {"type": "Feature", "geometry": {"type": "Point", "coordinates": [77.57792663574219, 14.652016639709473]}, "properties": {"suitability_probability": 0.0102}}, {"type": "Feature", "geometry": {"type": "Point", "coordinates": [77.5837631225586, 14.652016639709473]}, "properties": {"suitability_probability": 0.0449}}, {"type": "Feature", "geometry": {"type": "Point", "coordinates": [77.589599609375, 14.652016639709473]}, "properties": {"suitability_probability": 0.0005}}, {"type": "Feature", "geometry": {"type": "Point", "coordinates": [77.59544372558594, 14.652016639709473]}, "properties": {"suitability_probability": 0.966}}, {"type": "Feature", "geometry": {"type": "Point", "coordinates": [77.60128021240234, 14.652016639709473]}, "properties": {"suitability_probability": 0.0047}}, {"type": "Feature", "geometry": {"type": "Point", "coordinates": [77.60711669921875, 14.652016639709473]}, "properties": {"suitability_probability": 0.0012}}, {"type": "Feature", "geometry": {"type": "Point", "coordinates": [77.61296081542969, 14.652016639709473]}, "properties": {"suitability_probability": 0.0047}}, {"type": "Feature", "geometry": {"type": "Point", "coordinates": [77.6187973022461, 14.652016639709473]}, "properties": {"suitability_probability": 0.0055}}, {"type": "Feature", "geometry": {"type": "Point", "coordinates": [77.6246337890625, 14.652016639709473]}, "properties": {"suitability_probability": 0.0836}}, {"type": "Feature", "geometry": {"type": "Point", "coordinates": [77.63047790527344, 14.652016639709473]}, "properties": {"suitability_probability": 0.3806}}, {"type": "Feature", "geometry": {"type": "Point", "coordinates": [77.63631439208984, 14.652016639709473]}, "properties": {"suitability_probability": 0.0061}}, {"type": "Feature", "geometry": {"type": "Point", "coordinates": [77.64215087890625, 14.652016639709473]}, "properties": {"suitability_probability": 0.0405}}, {"type": "Feature", "geometry": {"type": "Point", "coordinates": [77.64799499511719, 14.652016639709473]}, "properties": {"suitability_probability": 0.2201}}, {"type": "Feature", "geometry": {"type": "Point", "coordinates": [77.6538314819336, 14.652016639709473]}, "properties": {"suitability_probability": 0.9951}}, {"type": "Feature", "geometry": {"type": "Point", "coordinates": [77.65966796875, 14.652016639709473]}, "properties": {"suitability_probability": 0.9807}}, {"type": "Feature", "geometry": {"type": "Point", "coordinates": [77.66551208496094, 14.652016639709473]}, "properties": {"suitability_probability": 0.5101}}, {"type": "Feature", "geometry": {"type": "Point", "coordinates": [77.67134857177734, 14.652016639709473]}, "properties": {"suitability_probability": 0.0122}}, {"type": "Feature", "geometry": {"type": "Point", "coordinates": [77.5487289428711, 14.646177291870117]}, "properties": {"suitability_probability": 0.0032}}, {"type": "Feature", "geometry": {"type": "Point", "coordinates": [77.5545654296875, 14.646177291870117]}, "properties": {"suitability_probability": 0.0008}}, {"type": "Feature", "geometry": {"type": "Point", "coordinates": [77.56040954589844, 14.646177291870117]}, "properties": {"suitability_probability": 0.0093}}, {"type": "Feature", "geometry": {"type": "Point", "coordinates": [77.56624603271484, 14.646177291870117]}, "properties": {"suitability_probability": 0.0019}}, {"type": "Feature", "geometry": {"type": "Point", "coordinates": [77.57208251953125, 14.646177291870117]}, "properties": {"suitability_probability": 0.0043}}, {"type": "Feature", "geometry": {"type": "Point", "coordinates": [77.57792663574219, 14.646177291870117]}, "properties": {"suitability_probability": 0.0069}}, {"type": "Feature", "geometry": {"type": "Point", "coordinates": [77.5837631225586, 14.646177291870117]}, "properties": {"suitability_probability": 0.0258}}, {"type": "Feature", "geometry": {"type": "Point", "coordinates": [77.589599609375, 14.646177291870117]}, "properties": {"suitability_probability": 0.0009}}, {"type": "Feature", "geometry": {"type": "Point", "coordinates": [77.59544372558594, 14.646177291870117]}, "properties": {"suitability_probability": 0.0017}}, {"type": "Feature", "geometry": {"type": "Point", "coordinates": [77.60128021240234, 14.646177291870117]}, "properties": {"suitability_probability": 0.0007}}, {"type": "Feature", "geometry": {"type": "Point", "coordinates": [77.60711669921875, 14.646177291870117]}, "properties": {"suitability_probability": 0.0005}}, {"type": "Feature", "geometry": {"type": "Point", "coordinates": [77.61296081542969, 14.646177291870117]}, "properties": {"suitability_probability": 0.7466}}, {"type": "Feature", "geometry": {"type": "Point", "coordinates": [77.6187973022461, 14.646177291870117]}, "properties": {"suitability_probability": 0.0297}}, {"type": "Feature", "geometry": {"type": "Point", "coordinates": [77.6246337890625, 14.646177291870117]}, "properties": {"suitability_probability": 0.0639}}, {"type": "Feature", "geometry": {"type": "Point", "coordinates": [77.63047790527344, 14.646177291870117]}, "properties": {"suitability_probability": 0.0004}}, {"type": "Feature", "geometry": {"type": "Point", "coordinates": [77.63631439208984, 14.646177291870117]}, "properties": {"suitability_probability": 0.0016}}, {"type": "Feature", "geometry": {"type": "Point", "coordinates": [77.64215087890625, 14.646177291870117]}, "properties": {"suitability_probability": 0.0126}}, {"type": "Feature", "geometry": {"type": "Point", "coordinates": [77.64799499511719, 14.646177291870117]}, "properties": {"suitability_probability": 0.0011}}, {"type": "Feature", "geometry": {"type": "Point", "coordinates": [77.6538314819336, 14.646177291870117]}, "properties": {"suitability_probability": 0.005}}, {"type": "Feature", "geometry": {"type": "Point", "coordinates": [77.65966796875, 14.646177291870117]}, "properties": {"suitability_probability": 0.0007}}, {"type": "Feature", "geometry": {"type": "Point", "coordinates": [77.66551208496094, 14.646177291870117]}, "properties": {"suitability_probability": 0.092}}, {"type": "Feature", "geometry": {"type": "Point", "coordinates": [77.67134857177734, 14.646177291870117]}, "properties": {"suitability_probability": 0.114}}, {"type": "Feature", "geometry": {"type": "Point", "coordinates": [77.5487289428711, 14.640337944030762]}, "properties": {"suitability_probability": 0.0217}}, {"type": "Feature", "geometry": {"type": "Point", "coordinates": [77.5545654296875, 14.640337944030762]}, "properties": {"suitability_probability": 0.0022}}, {"type": "Feature", "geometry": {"type": "Point", "coordinates": [77.56040954589844, 14.640337944030762]}, "properties": {"suitability_probability": 0.0927}}, {"type": "Feature", "geometry": {"type": "Point", "coordinates": [77.56624603271484, 14.640337944030762]}, "properties": {"suitability_probability": 0.0192}}, {"type": "Feature", "geometry": {"type": "Point", "coordinates": [77.57208251953125, 14.640337944030762]}, "properties": {"suitability_probability": 0.9915}}, {"type": "Feature", "geometry": {"type": "Point", "coordinates": [77.57792663574219, 14.640337944030762]}, "properties": {"suitability_probability": 0.598}}, {"type": "Feature", "geometry": {"type": "Point", "coordinates": [77.5837631225586, 14.640337944030762]}, "properties": {"suitability_probability": 0.0278}}, {"type": "Feature", "geometry": {"type": "Point", "coordinates": [77.589599609375, 14.640337944030762]}, "properties": {"suitability_probability": 0.0121}}, {"type": "Feature", "geometry": {"type": "Point", "coordinates": [77.59544372558594, 14.640337944030762]}, "properties": {"suitability_probability": 0.001}}, {"type": "Feature", "geometry": {"type": "Point", "coordinates": [77.60128021240234, 14.640337944030762]}, "properties": {"suitability_probability": 0.0011}}, {"type": "Feature", "geometry": {"type": "Point", "coordinates": [77.60711669921875, 14.640337944030762]}, "properties": {"suitability_probability": 0.0011}}, {"type": "Feature", "geometry": {"type": "Point", "coordinates": [77.61296081542969, 14.640337944030762]}, "properties": {"suitability_probability": 0.2768}}, {"type": "Feature", "geometry": {"type": "Point", "coordinates": [77.6187973022461, 14.640337944030762]}, "properties": {"suitability_probability": 0.0278}}, {"type": "Feature", "geometry": {"type": "Point", "coordinates": [77.6246337890625, 14.640337944030762]}, "properties": {"suitability_probability": 0.0056}}, {"type": "Feature", "geometry": {"type": "Point", "coordinates": [77.63047790527344, 14.640337944030762]}, "properties": {"suitability_probability": 0.9834}}, {"type": "Feature", "geometry": {"type": "Point", "coordinates": [77.63631439208984, 14.640337944030762]}, "properties": {"suitability_probability": 0.7109}}, {"type": "Feature", "geometry": {"type": "Point", "coordinates": [77.64215087890625, 14.640337944030762]}, "properties": {"suitability_probability": 0.0027}}, {"type": "Feature", "geometry": {"type": "Point", "coordinates": [77.64799499511719, 14.640337944030762]}, "properties": {"suitability_probability": 0.0196}}, {"type": "Feature", "geometry": {"type": "Point", "coordinates": [77.6538314819336, 14.640337944030762]}, "properties": {"suitability_probability": 0.0131}}, {"type": "Feature", "geometry": {"type": "Point", "coordinates": [77.65966796875, 14.640337944030762]}, "properties": {"suitability_probability": 0.0071}}, {"type": "Feature", "geometry": {"type": "Point", "coordinates": [77.66551208496094, 14.640337944030762]}, "properties": {"suitability_probability": 0.0042}}, {"type": "Feature", "geometry": {"type": "Point", "coordinates": [77.67134857177734, 14.640337944030762]}, "properties": {"suitability_probability": 0.0022}}, {"type": "Feature", "geometry": {"type": "Point", "coordinates": [77.5487289428711, 14.634499549865723]}, "properties": {"suitability_probability": 0.0018}}, {"type": "Feature", "geometry": {"type": "Point", "coordinates": [77.5545654296875, 14.634499549865723]}, "properties": {"suitability_probability": 0.0364}}, {"type": "Feature", "geometry": {"type": "Point", "coordinates": [77.56040954589844, 14.634499549865723]}, "properties": {"suitability_probability": 0.0154}}, {"type": "Feature", "geometry": {"type": "Point", "coordinates": [77.56624603271484, 14.634499549865723]}, "properties": {"suitability_probability": 0.0932}}, {"type": "Feature", "geometry": {"type": "Point", "coordinates": [77.57208251953125, 14.634499549865723]}, "properties": {"suitability_probability": 0.0118}}, {"type": "Feature", "geometry": {"type": "Point", "coordinates": [77.57792663574219, 14.634499549865723]}, "properties": {"suitability_probability": 0.9992}}, {"type": "Feature", "geometry": {"type": "Point", "coordinates": [77.5837631225586, 14.634499549865723]}, "properties": {"suitability_probability": 0.0034}}, {"type": "Feature", "geometry": {"type": "Point", "coordinates": [77.589599609375, 14.634499549865723]}, "properties": {"suitability_probability": 0.001}}, {"type": "Feature", "geometry": {"type": "Point", "coordinates": [77.59544372558594, 14.634499549865723]}, "properties": {"suitability_probability": 0.0011}}, {"type": "Feature", "geometry": {"type": "Point", "coordinates": [77.60128021240234, 14.634499549865723]}, "properties": {"suitability_probability": 0.0012}}, {"type": "Feature", "geometry": {"type": "Point", "coordinates": [77.60711669921875, 14.634499549865723]}, "properties": {"suitability_probability": 0.0312}}, {"type": "Feature", "geometry": {"type": "Point", "coordinates": [77.61296081542969, 14.634499549865723]}, "properties": {"suitability_probability": 0.0834}}, {"type": "Feature", "geometry": {"type": "Point", "coordinates": [77.6187973022461, 14.634499549865723]}, "properties": {"suitability_probability": 0.023}}, {"type": "Feature", "geometry": {"type": "Point", "coordinates": [77.6246337890625, 14.634499549865723]}, "properties": {"suitability_probability": 0.4617}}, {"type": "Feature", "geometry": {"type": "Point", "coordinates": [77.63047790527344, 14.634499549865723]}, "properties": {"suitability_probability": 0.0168}}, {"type": "Feature", "geometry": {"type": "Point", "coordinates": [77.63631439208984, 14.634499549865723]}, "properties": {"suitability_probability": 0.0151}}, {"type": "Feature", "geometry": {"type": "Point", "coordinates": [77.64215087890625, 14.634499549865723]}, "properties": {"suitability_probability": 0.0967}}, {"type": "Feature", "geometry": {"type": "Point", "coordinates": [77.64799499511719, 14.634499549865723]}, "properties": {"suitability_probability": 0.0131}}, {"type": "Feature", "geometry": {"type": "Point", "coordinates": [77.6538314819336, 14.634499549865723]}, "properties": {"suitability_probability": 0.0316}}, {"type": "Feature", "geometry": {"type": "Point", "coordinates": [77.65966796875, 14.634499549865723]}, "properties": {"suitability_probability": 0.1142}}, {"type": "Feature", "geometry": {"type": "Point", "coordinates": [77.66551208496094, 14.634499549865723]}, "properties": {"suitability_probability": 0.4746}}, {"type": "Feature", "geometry": {"type": "Point", "coordinates": [77.67134857177734, 14.634499549865723]}, "properties": {"suitability_probability": 0.9605}}, {"type": "Feature", "geometry": {"type": "Point", "coordinates": [77.5487289428711, 14.628660202026367]}, "properties": {"suitability_probability": 0.0091}}, {"type": "Feature", "geometry": {"type": "Point", "coordinates": [77.5545654296875, 14.628660202026367]}, "properties": {"suitability_probability": 0.0136}}, {"type": "Feature", "geometry": {"type": "Point", "coordinates": [77.56040954589844, 14.628660202026367]}, "properties": {"suitability_probability": 0.0036}}, {"type": "Feature", "geometry": {"type": "Point", "coordinates": [77.56624603271484, 14.628660202026367]}, "properties": {"suitability_probability": 0.0432}}, {"type": "Feature", "geometry": {"type": "Point", "coordinates": [77.57208251953125, 14.628660202026367]}, "properties": {"suitability_probability": 0.0022}}, {"type": "Feature", "geometry": {"type": "Point", "coordinates": [77.57792663574219, 14.628660202026367]}, "properties": {"suitability_probability": 0.03}}, {"type": "Feature", "geometry": {"type": "Point", "coordinates": [77.5837631225586, 14.628660202026367]}, "properties": {"suitability_probability": 0.0006}}, {"type": "Feature", "geometry": {"type": "Point", "coordinates": [77.589599609375, 14.628660202026367]}, "properties": {"suitability_probability": 0.0116}}, {"type": "Feature", "geometry": {"type": "Point", "coordinates": [77.59544372558594, 14.628660202026367]}, "properties": {"suitability_probability": 0.0069}}, {"type": "Feature", "geometry": {"type": "Point", "coordinates": [77.60128021240234, 14.628660202026367]}, "properties": {"suitability_probability": 0.8987}}, {"type": "Feature", "geometry": {"type": "Point", "coordinates": [77.60711669921875, 14.628660202026367]}, "properties": {"suitability_probability": 0.0633}}, {"type": "Feature", "geometry": {"type": "Point", "coordinates": [77.61296081542969, 14.628660202026367]}, "properties": {"suitability_probability": 0.0017}}, {"type": "Feature", "geometry": {"type": "Point", "coordinates": [77.6187973022461, 14.628660202026367]}, "properties": {"suitability_probability": 0.0052}}, {"type": "Feature", "geometry": {"type": "Point", "coordinates": [77.6246337890625, 14.628660202026367]}, "properties": {"suitability_probability": 0.5332}}, {"type": "Feature", "geometry": {"type": "Point", "coordinates": [77.63047790527344, 14.628660202026367]}, "properties": {"suitability_probability": 0.0244}}, {"type": "Feature", "geometry": {"type": "Point", "coordinates": [77.63631439208984, 14.628660202026367]}, "properties": {"suitability_probability": 0.0012}}, {"type": "Feature", "geometry": {"type": "Point", "coordinates": [77.64215087890625, 14.628660202026367]}, "properties": {"suitability_probability": 0.2087}}, {"type": "Feature", "geometry": {"type": "Point", "coordinates": [77.64799499511719, 14.628660202026367]}, "properties": {"suitability_probability": 0.5638}}, {"type": "Feature", "geometry": {"type": "Point", "coordinates": [77.6538314819336, 14.628660202026367]}, "properties": {"suitability_probability": 0.0092}}, {"type": "Feature", "geometry": {"type": "Point", "coordinates": [77.65966796875, 14.628660202026367]}, "properties": {"suitability_probability": 0.0054}}, {"type": "Feature", "geometry": {"type": "Point", "coordinates": [77.66551208496094, 14.628660202026367]}, "properties": {"suitability_probability": 0.027}}, {"type": "Feature", "geometry": {"type": "Point", "coordinates": [77.67134857177734, 14.628660202026367]}, "properties": {"suitability_probability": 0.2049}}]}